LEMUR-2-DEMBITZ         
1 42842U 17042T   26068.47492167  .00020231  00000+0  76561-3 0  9991
2 42842  97.3807 250.9241 0006961  17.1421 343.0051 15.26947128473114
STARLINK-31660          
1 59642U 24082M   26068.45093396 -.00000269  00000+0 -21930-6 0  9992
2 59642  43.0042 100.7890 0002132 327.0181  33.0537 15.27573152105438
