[{"OBJECT_NAME":"LEMUR-2-DEMBITZ","OBJECT_ID":"2017-042T","EPOCH":"2026-03-09T11:23:53.232288","MEAN_MOTION":15.26947128,"ECCENTRICITY":0.00069617,"INCLINATION":97.3807,"RA_OF_ASC_NODE":250.9241,"ARG_OF_PERICENTER":17.1421,"MEAN_ANOMALY":343.0051,"EPHEMERIS_TYPE":0,"CLASSIFICATION_TYPE":"U","NORAD_CAT_ID":42842,"ELEMENT_SET_NO":999,"REV_AT_EPOCH":47311,"BSTAR":0.00076560825,"MEAN_MOTION_DOT":0.00020231,"MEAN_MOTION_DDOT":0},{"OBJECT_NAME":"STARLINK-31660","OBJECT_ID":"2024-082M","EPOCH":"2026-03-09T10:49:20.694144","MEAN_MOTION":15.27573152,"ECCENTRICITY":0.0002132,"INCLINATION":43.0042,"RA_OF_ASC_NODE":100.789,"ARG_OF_PERICENTER":327.0181,"MEAN_ANOMALY":33.0537,"EPHEMERIS_TYPE":0,"CLASSIFICATION_TYPE":"U","NORAD_CAT_ID":59642,"ELEMENT_SET_NO":999,"REV_AT_EPOCH":10543,"BSTAR":-2.19301e-7,"MEAN_MOTION_DOT":-2.69e-6,"MEAN_MOTION_DDOT":0}]
